KUIPER-00089            
1 64834U 25151U   25353.11180305  .00003740  00000+0  51888-3 0  9992
2 64834  51.9011 281.9007 0002279  67.4566 292.6637 14.79971628 23582
KUIPER-00090            
1 64835U 25151V   25352.98607598  .00002123  00000+0  33037-3 0  9995
2 64835  51.8989 274.3218 0004334  85.1482 274.9974 14.76780465 23675
KUIPER-00091            
1 64836U 25151W   25353.51968969 -.00005212  00000+0 -65451-3 0  9997
2 64836  51.9027 277.6042 0008351  32.5022 327.6453 14.79928635 23674
KUIPER-00092            
1 64837U 25151X   25353.91668981  .00012225  00000+0  16523-2 0  9998
2 64837  51.9008 283.3424 0004636 355.9849   5.8758 14.79345923  4106
KUIPER-00093            
1 64838U 25151Y   25353.84674069 -.00051694  00000+0 -68382-2 0  9990
2 64838  51.9004 286.1454 0014039 357.7956   2.2942 14.79644440 23589
KUIPER-00094            
1 64839U 25151Z   25353.16553406  .00007290  00000+0  52890-3 0  9996
2 64839  51.8899 272.7716 0004437  17.4669 342.6455 15.04843705 23714
KUIPER-00081            
1 65132U 25171A   25353.91668981  .00001746  00000+0  19123-3 0  9995
2 65132  51.8956 141.6294 0003932 229.1773 137.3373 14.92715826  5218
KUIPER-00088            
1 65133U 25171B   25353.84404722  .00001760  00000+0  27946-3 0  9997
2 65133  51.8981 158.9545 0007936 211.7085 148.3399 14.76736653 20960
